NORAD_CAT_ID,OBJECT_NAME,OBJECT_TYPE,EPOCH,MEAN_MOTION,ECCENTRICITY,INCLINATION,RA_OF_ASC_NODE,ARG_OF_PERICENTER,MEAN_ANOMALY,BSTAR,MEAN_MOTION_DOT,MEAN_MOTION_DDOT,TLE_LINE0,TLE_LINE1,TLE_LINE2,SEMIMAJOR_AXIS,PERIOD,APOGEE,PERIGEE,DECAYED
52583.0,STARLINK-3895,PAYLOAD,2022-07-25 14:00:01,15.17254148,0.0001833,53.2174,298.8590000000001,42.1527,218.5496,-0.057573,-0.01074772,0.0,0 STARLINK-3895,1 52583U 22051AZ  22206.58334491 -.01074772  00000-0 -57573-1 0  9990,2 52583  53.2174 298.8590 0001833  42.1527 218.5496 15.17254148  1301,6892.281,94.908,515.409,512.882,0.0
52583.0,STARLINK-3895,PAYLOAD,2022-07-25 22:00:00,15.16496783,0.0001534,53.2174,297.345,51.2772,230.6672,-0.0590889999999999,-0.01078917,0.0,0 STARLINK-3895,1 52583U 22051AZ  22206.91667824 -.01078917  00000-0 -59089-1 0  9995,2 52583  53.2174 297.3450 0001534  51.2772 230.6672 15.16496783  1304,6894.575,94.956,517.498,515.383,0.0
52583.0,STARLINK-3895,PAYLOAD,2022-07-26 06:00:00,15.15734367,0.0001551999999999,53.2176,295.8327,49.2792,252.9955,-0.060028,-0.01072855,0.0,0 STARLINK-3895,1 52583U 22051AZ  22207.25001157 -.01072855  00000-0 -60028-1 0  9994,2 52583  53.2176 295.8327 0001552  49.2792 252.9955 15.15734367 12014,6896.887,95.003,519.822,517.682,0.0
52583.0,STARLINK-3895,PAYLOAD,2022-07-26 14:00:01,15.14976422,0.0001771999999999,53.2175,294.325,39.0486,282.6411,-0.061525,-0.01075892,0.0,0 STARLINK-3895,1 52583U 22051AZ  22207.58334491 -.01075892  00000-0 -61525-1 0  9997,2 52583  53.2175 294.3250 0001772  39.0486 282.6411 15.14976422  1309,6899.187,95.051,522.275,519.83,0.0
52583.0,STARLINK-3895,PAYLOAD,2022-07-26 22:00:00,15.14218115,0.0001548,53.2174,292.816,44.7891,295.4052,-0.063047,-0.01078746,0.0,0 STARLINK-3895,1 52583U 22051AZ  22207.91667824 -.01078746  00000-0 -63047-1 0  9995,2 52583  53.2174 292.8160 0001548  44.7891 295.4052 15.14218115  1306,6901.49,95.099,524.424,522.2869999999998,0.0
52583.0,STARLINK-3895,PAYLOAD,2022-07-27 06:00:02,15.13455427,0.0001713,53.2176,291.3093,38.4012,319.4485,-0.063999,-0.01072201,0.0,0 STARLINK-3895,1 52583U 22051AZ  22208.25002315 -.01072201  00000-0 -63999-1 0  9997,2 52583  53.2176 291.3093 0001713  38.4012 319.4485 15.13455427 12167,6903.809,95.147,526.856,524.491,0.0
52583.0,STARLINK-3895,PAYLOAD,2022-07-27 14:00:01,15.12698364,0.0001854,53.2175,289.8068,35.282,339.1815,-0.065678,-0.01076777,0.0,0 STARLINK-3895,1 52583U 22051AZ  22208.58334491 -.01076777  00000-0 -65678-1 0  9994,2 52583  53.2175 289.8068 0001854  35.2820 339.1815 15.12698364  1306,6906.111999999999,95.194,529.257,526.697,0.0
52583.0,STARLINK-3895,PAYLOAD,2022-07-27 22:00:00,15.11938813,0.0001673,53.2175,288.303,39.8214,350.4092,-0.067138,-0.01077421,0.0,0 STARLINK-3895,1 52583U 22051AZ  22208.91667824 -.01077421  00000-0 -67138-1 0  9990,2 52583  53.2175 288.3030 0001673  39.8214 350.4092 15.11938813  1303,6908.425,95.242,531.446,529.134,0.0
52583.0,STARLINK-3895,PAYLOAD,2022-07-28 08:00:01,15.110146599999998,0.0001906,53.2177,286.4254,42.8207,95.8217,-0.071221,-0.01111121,0.0,0 STARLINK-3895,1 52583U 22051AZ  22209.33334491 -.01111121  00000-0 -71221-1 0  9992,2 52583  53.2177 286.4254 0001906  42.8207  95.8217 15.11014660 12325,6911.241,95.3,534.424,531.789,0.0
52583.0,STARLINK-3895,PAYLOAD,2022-07-28 14:00:01,15.10419689,0.0001868,53.2176,285.3044,36.0352,22.9884,-0.070007,-0.0107694,0.0,0 STARLINK-3895,1 52583U 22051AZ  22209.58334491 -.01076940  00000-0 -70007-1 0  9999,2 52583  53.2176 285.3044 0001868  36.0352  22.9884 15.10419689  1308,6913.056,95.338,536.212,533.63,0.0
52583.0,STARLINK-3895,PAYLOAD,2022-07-28 22:00:00,15.095423,0.0001608,53.2175,283.8051,38.5263,33.5474,-0.048019,-0.00724829,0.0,0 STARLINK-3895,1 52583U 22051AZ  22209.91667824 -.00724829  00000-0 -48019-1 0  9998,2 52583  53.2175 283.8051 0001608  38.5263  33.5474 15.09542300  1306,6915.735,95.393,538.712,536.488,0.0
52583.0,STARLINK-3895,PAYLOAD,2022-07-29 00:00:00,15.0934663,0.0001636999999999,53.2175,283.4305,41.621,123.5631,-0.03877,-0.00584281,0.0,0 STARLINK-3895,1 52583U 22051AZ  22210.00001157 -.00584281  00000-0 -38770-1 0  9990,2 52583  53.2175 283.4305 0001637  41.6210 123.5631 15.09346630 12421,6916.331999999999,95.406,539.3290000000002,537.065,0.0
52583.0,STARLINK-3895,PAYLOAD,2022-07-29 06:00:00,15.08904472,0.0001619,53.2177,282.308,41.9086,42.307,-0.0068756,-0.00108264,0.0,0 STARLINK-3895,1 52583U 22051AZ  22210.25001157 -.00108264  00000-0 -68756-2 0  9998,2 52583  53.2177 282.3080 0001619  41.9086  42.3070 15.08904472 12467,6917.683000000001,95.433,540.668,538.428,0.0
52583.0,STARLINK-3895,PAYLOAD,2022-07-29 14:00:01,15.08895779,0.0002034,53.2178,280.8101,47.4206,48.2488,0.0076574,0.0012392,0.0,0 STARLINK-3895,1 52583U 22051AZ  22210.58334491  .00123920  00000-0  76574-2 0  9995,2 52583  53.2178 280.8101 0002034  47.4206  48.2488 15.08895779  1300,6917.71,95.434,540.982,538.168,0.0
52583.0,STARLINK-3895,PAYLOAD,2022-07-29 22:00:00,15.08846942,0.0001983,53.2171,279.3064,52.1106,55.1807,-0.00093002,-0.00015062,0.0,0 STARLINK-3895,1 52583U 22051AZ  22210.91667824 -.00015062  00000-0 -93002-3 0  9996,2 52583  53.2171 279.3064 0001983  52.1106  55.1807 15.08846942  1308,6917.859,95.437,541.096,538.352,0.0
52583.0,STARLINK-3895,PAYLOAD,2022-07-30 14:00:01,15.08825356,0.0002112999999999,53.2167,276.3153,49.7121,80.7799,0.0020888,0.00033099,0.0,0 STARLINK-3895,1 52583U 22051AZ  22211.58334491  .00033099  00000-0  20888-2 0  9990,2 52583  53.2167 276.3153 0002113  49.7121  80.7799 15.08825356  1304,6917.925,95.438,541.252,538.328,0.0
52583.0,STARLINK-3895,PAYLOAD,2022-07-30 22:00:00,15.08847752,0.0001984,53.2163,274.8174,53.0865,88.9999,-0.00058404,-9.573e-05,0.0,0 STARLINK-3895,1 52583U 22051AZ  22211.91667824 -.00009573  00000-0 -58404-3 0  9994,2 52583  53.2163 274.8174 0001984  53.0865  88.9999 15.08847752 12717,6917.857,95.437,541.094,538.349,0.0
52583.0,STARLINK-3895,PAYLOAD,2022-07-31 14:00:01,15.08827254,0.0002151999999999,53.2161,271.8261,49.7788,115.5207,0.0025553,0.00040601,0.0,0 STARLINK-3895,1 52583U 22051AZ  22212.58334491  .00040601  00000-0  25553-2 0  9992,2 52583  53.2161 271.8261 0002152  49.7788 115.5207 15.08827254  1300,6917.919,95.438,541.273,538.2959999999998,0.0
52583.0,STARLINK-3895,PAYLOAD,2022-07-31 22:00:00,15.08850321,0.0002021999999999,53.2159,270.328,53.1404,123.7614,-7.988e-05,-1.56e-05,0.0,0 STARLINK-3895,1 52583U 22051AZ  22212.91667824 -.00001560  00000-0 -79880-4 0  9995,2 52583  53.2159 270.3280 0002022  53.1404 123.7614 15.08850321 12869,6917.849,95.437,541.113,538.315,0.0
52583.0,STARLINK-3895,PAYLOAD,2022-08-01 14:00:01,15.08835012,0.0002211999999999,53.2159,267.3367,49.3054,150.8235,0.002496,0.00039655,0.0,0 STARLINK-3895,1 52583U 22051AZ  22213.58334491  .00039655  00000-0  24960-2 0  9991,2 52583  53.2159 267.3367 0002212  49.3054 150.8235 15.08835012  1307,6917.896,95.438,541.2909999999998,538.23,0.0
52583.0,STARLINK-3895,PAYLOAD,2022-08-01 22:00:00,15.08848587,0.0002021999999999,53.216,265.8384,51.5889,160.1548,-0.0015977,-0.00025632,0.0,0 STARLINK-3895,1 52583U 22051AZ  22213.91667824 -.00025632  00000-0 -15977-2 0  9997,2 52583  53.2160 265.8384 0002022  51.5889 160.1548 15.08848587  1303,6917.854,95.437,541.118,538.32,0.0
52583.0,STARLINK-3895,PAYLOAD,2022-08-02 06:00:02,15.08848713,0.0002063,53.2161,264.3423,53.1049,170.2905,-0.0013292,-0.00021386,0.0,0 STARLINK-3895,1 52583U 22051AZ  22214.25002315 -.00021386  00000-0 -13292-2 0  9993,2 52583  53.2161 264.3423 0002063  53.1049 170.2905 15.08848713 13069,6917.854,95.437,541.146,538.2919999999998,0.0
52583.0,STARLINK-3895,PAYLOAD,2022-08-02 14:00:01,15.08812442,0.0002217,53.2162,262.8472,47.5771,187.3564,0.002897,0.00046085,0.0,0 STARLINK-3895,1 52583U 22051AZ  22214.58334491  .00046085  00000-0  28970-2 0  9992,2 52583  53.2162 262.8472 0002217  47.5771 187.3564 15.08812442 13124,6917.965,95.439,541.363,538.2959999999998,0.0
52583.0,STARLINK-3895,PAYLOAD,2022-08-03 06:00:00,15.08857768,0.0002133999999999,53.2166,259.8529,52.8583,205.2511,-0.0014503,-0.00023307,0.0,0 STARLINK-3895,1 52583U 22051AZ  22215.25001157 -.00023307  00000-0 -14503-2 0  9998,2 52583  53.2166 259.8529 0002134  52.8583 205.2511 15.08857768 13228,6917.826,95.436,541.1669999999998,538.215,0.0
52583.0,STARLINK-3895,PAYLOAD,2022-08-03 14:00:01,15.08824125,0.000227,53.2166,258.3577,48.0112,221.7086,0.0027351,0.00043492,0.0,0 STARLINK-3895,1 52583U 22051AZ  22215.58334491  .00043492  00000-0  27351-2 0  9994,2 52583  53.2166 258.3577 0002270  48.0112 221.7086 15.08824125  1308,6917.929,95.439,541.364,538.224,0.0
52583.0,STARLINK-3895,PAYLOAD,2022-08-03 22:00:01,15.08832806,0.0002112999999999,53.2169,256.8594,52.3135,229.0719,0.0014696,0.00023174,0.0,0 STARLINK-3895,1 52583U 22051AZ  22215.91668981  .00023174  00000-0  14696-2 0  9998,2 52583  53.2169 256.8594 0002113  52.3135 229.0719 15.08832806  1301,6917.901999999999,95.438,541.229,538.306,0.0
52583.0,STARLINK-3895,PAYLOAD,2022-08-04 14:00:01,15.08845822,0.0002226,53.2169,253.8683,47.4534,257.0795,-0.00067742,-0.00011055,0.0,0 STARLINK-3895,1 52583U 22051AZ  22216.58334491 -.00011055  00000-0 -67742-3 0  9996,2 52583  53.2169 253.8683 0002226  47.4534 257.0795 15.08845822  1307,6917.863,95.437,541.268,538.188,0.0
52583.0,STARLINK-3895,PAYLOAD,2022-08-04 22:00:00,15.08807789,0.0002013,53.2171,252.3702,51.5289,264.6118,0.0019808,0.0003135,0.0,0 STARLINK-3895,1 52583U 22051AZ  22216.91667824  .00031350  00000-0  19808-2 0  9999,2 52583  53.2171 252.3702 0002013  51.5289 264.6118 15.08807789 13477,6917.979,95.44,541.236,538.451,0.0
52583.0,STARLINK-3895,PAYLOAD,2022-08-05 14:00:01,15.08817304,0.0002174,53.2168,249.3791,47.1025,292.2569,0.0017637999999999,0.00027877,0.0,0 STARLINK-3895,1 52583U 22051AZ  22217.58335648  .00027877  00000-0  17638-2 0  9997,2 52583  53.2168 249.3791 0002174  47.1025 292.2569 15.08817304  1304,6917.95,95.439,541.319,538.311,0.0
